CYGNUS NG-23            
1 65616U 25208A   25364.14573551  .00004955  00000+0  98268-4 0  9991
2 65616  51.6332  56.2707 0007469 318.0919  41.9497 15.48928231   221
DRAGONFLY               
1 65729U 98067XH  25364.12378489  .00299553  00000+0  16118-2 0  9992
2 65729  51.6255  46.3395 0008644  18.3792 341.7520 15.78757510 15900
1998-067XK              
1 65731U 98067XK  25364.13953797  .00145834  00000+0  11998-2 0  9990
2 65731  51.6294  48.7325 0005226 353.5628   6.5301 15.69410975 15870
RSP-03                  
1 65732U 98067XL  25364.23309880  .00212099  00000+0  14460-2 0  9995
2 65732  51.6265  47.0882 0006315   1.0219 359.0792 15.73649721 15913
GHS-01                  
1 65733U 98067XM  25363.40206568  .00414300  00000+0  17754-2 0  9991
2 65733  51.6276  49.0281 0009715  18.8599 341.2762 15.83384232 15818
YOTSUBA-KULOVER         
1 65941U 98067XN  25364.19389152  .00095501  00000+0  10663-2 0  9990
2 65941  51.6298  52.0976 0003143  24.6896 335.4247 15.61987524 12585
BOTAN                   
1 65942U 98067XP  25364.21748474  .00162855  00000+0  14794-2 0  9996
2 65942  51.6281  50.7516 0004062  11.1337 348.9748 15.66929899 12609
E-KAGAKU-1              
1 65943U 98067XQ  25364.19390621  .00098111  00000+0  10935-2 0  9997
2 65943  51.6308  52.1035 0001952   6.1237 353.9780 15.62024349 12581
HRC MONOBLOCK CAMERA    
1 66052U 98067XR  25364.13442161  .00045374  00000+0  65719-3 0  9994
2 66052  51.6310  54.6971 0001674 276.0871  83.9929 15.55411618 11546
HTV-X1                  
1 66174U 25241A   25364.14573551  .00004955  00000+0  98268-4 0  9998
2 66174  51.6332  56.2707 0007469 318.0919  41.9497 15.48928231   513
SZ-21 MODULE            
1 66515U 25246C   25364.11133491  .00038668  00000+0  40775-3 0  9991
2 66515  41.4763 270.0035 0003305 356.9568   3.1251 15.63480572  7167
SHENZHOU-22             
1 66645U 25272A   25364.13310625  .00025691  00000+0  31261-3 0  9994
2 66645  41.4672 271.0575 0009498 180.1911 179.8925 15.59892918265989
