CCSDS_OMM_VERS = 2.0
CREATION_DATE  = 
ORIGINATOR     = 

OBJECT_NAME    = CYGNUS NG-23
OBJECT_ID      = 2025-208A
CENTER_NAME    = EARTH
REF_FRAME      = TEME
TIME_SYSTEM    = UTC
MEAN_ELEMENT_THEORY = SGP/SGP4

EPOCH          = 2025-12-30T03:29:51.548064
MEAN_MOTION    = 15.48928231
ECCENTRICITY   = .0007469
INCLINATION    = 51.6332
RA_OF_ASC_NODE = 56.2707
ARG_OF_PERICENTER = 318.0919
MEAN_ANOMALY   = 41.9497

EPHEMERIS_TYPE = 0
CLASSIFICATION_TYPE = U
NORAD_CAT_ID   = 65616
ELEMENT_SET_NO = 999
REV_AT_EPOCH   = 22
BSTAR          = .98267799E-4
MEAN_MOTION_DOT = .4955E-4
MEAN_MOTION_DDOT = 0

CCSDS_OMM_VERS = 2.0
CREATION_DATE  = 
ORIGINATOR     = 

OBJECT_NAME    = DRAGONFLY
OBJECT_ID      = 1998-067XH
CENTER_NAME    = EARTH
REF_FRAME      = TEME
TIME_SYSTEM    = UTC
MEAN_ELEMENT_THEORY = SGP/SGP4

EPOCH          = 2025-12-30T02:58:15.014496
MEAN_MOTION    = 15.78757510
ECCENTRICITY   = .00086447
INCLINATION    = 51.6255
RA_OF_ASC_NODE = 46.3395
ARG_OF_PERICENTER = 18.3792
MEAN_ANOMALY   = 341.7520

EPHEMERIS_TYPE = 0
CLASSIFICATION_TYPE = U
NORAD_CAT_ID   = 65729
ELEMENT_SET_NO = 999
REV_AT_EPOCH   = 1590
BSTAR          = .16118194E-2
MEAN_MOTION_DOT = .299553E-2
MEAN_MOTION_DDOT = 0

CCSDS_OMM_VERS = 2.0
CREATION_DATE  = 
ORIGINATOR     = 

OBJECT_NAME    = 1998-067XK
OBJECT_ID      = 1998-067XK
CENTER_NAME    = EARTH
REF_FRAME      = TEME
TIME_SYSTEM    = UTC
MEAN_ELEMENT_THEORY = SGP/SGP4

EPOCH          = 2025-12-30T03:20:56.080608
MEAN_MOTION    = 15.69410975
ECCENTRICITY   = .00052266
INCLINATION    = 51.6294
RA_OF_ASC_NODE = 48.7325
ARG_OF_PERICENTER = 353.5628
MEAN_ANOMALY   = 6.5301

EPHEMERIS_TYPE = 0
CLASSIFICATION_TYPE = U
NORAD_CAT_ID   = 65731
ELEMENT_SET_NO = 999
REV_AT_EPOCH   = 1587
BSTAR          = .11997688E-2
MEAN_MOTION_DOT = .145834E-2
MEAN_MOTION_DDOT = 0

CCSDS_OMM_VERS = 2.0
CREATION_DATE  = 
ORIGINATOR     = 

OBJECT_NAME    = RSP-03
OBJECT_ID      = 1998-067XL
CENTER_NAME    = EARTH
REF_FRAME      = TEME
TIME_SYSTEM    = UTC
MEAN_ELEMENT_THEORY = SGP/SGP4

EPOCH          = 2025-12-30T05:35:39.736320
MEAN_MOTION    = 15.73649721
ECCENTRICITY   = .00063157
INCLINATION    = 51.6265
RA_OF_ASC_NODE = 47.0882
ARG_OF_PERICENTER = 1.0219
MEAN_ANOMALY   = 359.0792

EPHEMERIS_TYPE = 0
CLASSIFICATION_TYPE = U
NORAD_CAT_ID   = 65732
ELEMENT_SET_NO = 999
REV_AT_EPOCH   = 1591
BSTAR          = .144595E-2
MEAN_MOTION_DOT = .212099E-2
MEAN_MOTION_DDOT = 0

CCSDS_OMM_VERS = 2.0
CREATION_DATE  = 
ORIGINATOR     = 

OBJECT_NAME    = GHS-01
OBJECT_ID      = 1998-067XM
CENTER_NAME    = EARTH
REF_FRAME      = TEME
TIME_SYSTEM    = UTC
MEAN_ELEMENT_THEORY = SGP/SGP4

EPOCH          = 2025-12-29T09:38:58.474752
MEAN_MOTION    = 15.83384232
ECCENTRICITY   = .00097153
INCLINATION    = 51.6276
RA_OF_ASC_NODE = 49.0281
ARG_OF_PERICENTER = 18.8599
MEAN_ANOMALY   = 341.2762

EPHEMERIS_TYPE = 0
CLASSIFICATION_TYPE = U
NORAD_CAT_ID   = 65733
ELEMENT_SET_NO = 999
REV_AT_EPOCH   = 1581
BSTAR          = .17753679E-2
MEAN_MOTION_DOT = .4143E-2
MEAN_MOTION_DDOT = 0

CCSDS_OMM_VERS = 2.0
CREATION_DATE  = 
ORIGINATOR     = 

OBJECT_NAME    = YOTSUBA-KULOVER
OBJECT_ID      = 1998-067XN
CENTER_NAME    = EARTH
REF_FRAME      = TEME
TIME_SYSTEM    = UTC
MEAN_ELEMENT_THEORY = SGP/SGP4

EPOCH          = 2025-12-30T04:39:12.227328
MEAN_MOTION    = 15.61987524
ECCENTRICITY   = .00031435
INCLINATION    = 51.6298
RA_OF_ASC_NODE = 52.0976
ARG_OF_PERICENTER = 24.6896
MEAN_ANOMALY   = 335.4247

EPHEMERIS_TYPE = 0
CLASSIFICATION_TYPE = U
NORAD_CAT_ID   = 65941
ELEMENT_SET_NO = 999
REV_AT_EPOCH   = 1258
BSTAR          = .1066324E-2
MEAN_MOTION_DOT = .95501E-3
MEAN_MOTION_DDOT = 0

CCSDS_OMM_VERS = 2.0
CREATION_DATE  = 
ORIGINATOR     = 

OBJECT_NAME    = BOTAN
OBJECT_ID      = 1998-067XP
CENTER_NAME    = EARTH
REF_FRAME      = TEME
TIME_SYSTEM    = UTC
MEAN_ELEMENT_THEORY = SGP/SGP4

EPOCH          = 2025-12-30T05:13:10.681536
MEAN_MOTION    = 15.66929899
ECCENTRICITY   = .00040622
INCLINATION    = 51.6281
RA_OF_ASC_NODE = 50.7516
ARG_OF_PERICENTER = 11.1337
MEAN_ANOMALY   = 348.9748

EPHEMERIS_TYPE = 0
CLASSIFICATION_TYPE = U
NORAD_CAT_ID   = 65942
ELEMENT_SET_NO = 999
REV_AT_EPOCH   = 1260
BSTAR          = .14794086E-2
MEAN_MOTION_DOT = .162855E-2
MEAN_MOTION_DDOT = 0

CCSDS_OMM_VERS = 2.0
CREATION_DATE  = 
ORIGINATOR     = 

OBJECT_NAME    = E-KAGAKU-1
OBJECT_ID      = 1998-067XQ
CENTER_NAME    = EARTH
REF_FRAME      = TEME
TIME_SYSTEM    = UTC
MEAN_ELEMENT_THEORY = SGP/SGP4

EPOCH          = 2025-12-30T04:39:13.496544
MEAN_MOTION    = 15.62024349
ECCENTRICITY   = .00019524
INCLINATION    = 51.6308
RA_OF_ASC_NODE = 52.1035
ARG_OF_PERICENTER = 6.1237
MEAN_ANOMALY   = 353.9780

EPHEMERIS_TYPE = 0
CLASSIFICATION_TYPE = U
NORAD_CAT_ID   = 65943
ELEMENT_SET_NO = 999
REV_AT_EPOCH   = 1258
BSTAR          = .10935097E-2
MEAN_MOTION_DOT = .98111E-3
MEAN_MOTION_DDOT = 0

CCSDS_OMM_VERS = 2.0
CREATION_DATE  = 
ORIGINATOR     = 

OBJECT_NAME    = HRC MONOBLOCK CAMERA
OBJECT_ID      = 1998-067XR
CENTER_NAME    = EARTH
REF_FRAME      = TEME
TIME_SYSTEM    = UTC
MEAN_ELEMENT_THEORY = SGP/SGP4

EPOCH          = 2025-12-30T03:13:34.027104
MEAN_MOTION    = 15.55411618
ECCENTRICITY   = .00016743
INCLINATION    = 51.6310
RA_OF_ASC_NODE = 54.6971
ARG_OF_PERICENTER = 276.0871
MEAN_ANOMALY   = 83.9929

EPHEMERIS_TYPE = 0
CLASSIFICATION_TYPE = U
NORAD_CAT_ID   = 66052
ELEMENT_SET_NO = 999
REV_AT_EPOCH   = 1154
BSTAR          = .65718916E-3
MEAN_MOTION_DOT = .45374E-3
MEAN_MOTION_DDOT = 0

CCSDS_OMM_VERS = 2.0
CREATION_DATE  = 
ORIGINATOR     = 

OBJECT_NAME    = HTV-X1
OBJECT_ID      = 2025-241A
CENTER_NAME    = EARTH
REF_FRAME      = TEME
TIME_SYSTEM    = UTC
MEAN_ELEMENT_THEORY = SGP/SGP4

EPOCH          = 2025-12-30T03:29:51.548064
MEAN_MOTION    = 15.48928231
ECCENTRICITY   = .0007469
INCLINATION    = 51.6332
RA_OF_ASC_NODE = 56.2707
ARG_OF_PERICENTER = 318.0919
MEAN_ANOMALY   = 41.9497

EPHEMERIS_TYPE = 0
CLASSIFICATION_TYPE = U
NORAD_CAT_ID   = 66174
ELEMENT_SET_NO = 999
REV_AT_EPOCH   = 51
BSTAR          = .98267799E-4
MEAN_MOTION_DOT = .4955E-4
MEAN_MOTION_DDOT = 0

CCSDS_OMM_VERS = 2.0
CREATION_DATE  = 
ORIGINATOR     = 

OBJECT_NAME    = SZ-21 MODULE
OBJECT_ID      = 2025-246C
CENTER_NAME    = EARTH
REF_FRAME      = TEME
TIME_SYSTEM    = UTC
MEAN_ELEMENT_THEORY = SGP/SGP4

EPOCH          = 2025-12-30T02:40:19.336224
MEAN_MOTION    = 15.63480572
ECCENTRICITY   = .00033053
INCLINATION    = 41.4763
RA_OF_ASC_NODE = 270.0035
ARG_OF_PERICENTER = 356.9568
MEAN_ANOMALY   = 3.1251

EPHEMERIS_TYPE = 0
CLASSIFICATION_TYPE = U
NORAD_CAT_ID   = 66515
ELEMENT_SET_NO = 999
REV_AT_EPOCH   = 716
BSTAR          = .40774703E-3
MEAN_MOTION_DOT = .38668E-3
MEAN_MOTION_DDOT = 0

CCSDS_OMM_VERS = 2.0
CREATION_DATE  = 
ORIGINATOR     = 

OBJECT_NAME    = SHENZHOU-22
OBJECT_ID      = 2025-272A
CENTER_NAME    = EARTH
REF_FRAME      = TEME
TIME_SYSTEM    = UTC
MEAN_ELEMENT_THEORY = SGP/SGP4

EPOCH          = 2025-12-30T03:11:40.380000
MEAN_MOTION    = 15.59892918
ECCENTRICITY   = .0009498
INCLINATION    = 41.4672
RA_OF_ASC_NODE = 271.0575
ARG_OF_PERICENTER = 180.1911
MEAN_ANOMALY   = 179.8925

EPHEMERIS_TYPE = 0
CLASSIFICATION_TYPE = U
NORAD_CAT_ID   = 66645
ELEMENT_SET_NO = 999
REV_AT_EPOCH   = 26598
BSTAR          = .31260929E-3
MEAN_MOTION_DOT = .25691E-3
MEAN_MOTION_DDOT = 0

